{
  "links" : {
    "next" : "https://api.nasa.gov/neo/rest/v1/neo/browse?page=32&size=20&api_key=jqAGvNAwUIBu4fl9FSOjdm3V4F7hIglRzI6pdX9d",
    "prev" : "https://api.nasa.gov/neo/rest/v1/neo/browse?page=30&size=20&api_key=jqAGvNAwUIBu4fl9FSOjdm3V4F7hIglRzI6pdX9d",
    "self" : "https://api.nasa.gov/neo/rest/v1/neo/browse?page=31&size=20&api_key=jqAGvNAwUIBu4fl9FSOjdm3V4F7hIglRzI6pdX9d"
  },
  "page" : {
    "size" : 20,
    "total_elements" : 20750,
    "total_pages" : 1038,
    "number" : 31
  },
  "near_earth_objects" : [ {
    "links" : {
      "self" : "https://api.nasa.gov/neo/rest/v1/neo/3370499?api_key=jqAGvNAwUIBu4fl9FSOjdm3V4F7hIglRzI6pdX9d"
    },
    "neo_reference_id" : "3370499",
    "name" : "(2007 EH26)",
    "designation" : "2007 EH26",
    "nasa_jpl_url" : "http://ssd.jpl.nasa.gov/sbdb.cgi?sstr=3370499",
    "absolute_magnitude_h" : 24.2,
    "estimated_diameter" : {
      "kilometers" : {
        "estimated_diameter_min" : 0.0384197891,
        "estimated_diameter_max" : 0.0859092601
      },
      "meters" : {
        "estimated_diameter_min" : 38.4197891064,
        "estimated_diameter_max" : 85.9092601232
      },
      "miles" : {
        "estimated_diameter_min" : 0.0238729428,
        "estimated_diameter_max" : 0.0533815229
      },
      "feet" : {
        "estimated_diameter_min" : 126.0491808919,
        "estimated_diameter_max" : 281.8545369825
      }
    },
    "is_potentially_hazardous_asteroid" : false,
    "close_approach_data" : [ {
      "close_approach_date" : "2007-03-18",
      "epoch_date_close_approach" : 1174201200000,
      "relative_velocity" : {
        "kilometers_per_second" : "21.1827313938",
        "kilometers_per_hour" : "76257.8330177228",
        "miles_per_hour" : "47383.6518548178"
      },
      "miss_distance" : {
        "astronomical" : "0.0335841594",
        "lunar" : "13.0642375946",
        "kilometers" : "5024118.5",
        "miles" : "3121842.5"
      },
      "orbiting_body" : "Earth"
    } ],
    "orbital_data" : {
      "orbit_id" : "9",
      "orbit_determination_date" : "2017-04-06 09:06:47",
      "first_observation_date" : "2007-03-10",
      "last_observation_date" : "2007-03-16",
      "data_arc_in_days" : 6,
      "observations_used" : 40,
      "orbit_uncertainty" : "8",
      "minimum_orbit_intersection" : ".00565411",
      "jupiter_tisserand_invariant" : "3.614",
      "epoch_osculation" : "2454171.5",
      "eccentricity" : ".6720198074814542",
      "semi_major_axis" : "1.913000982062069",
      "inclination" : "5.651306868633331",
      "ascending_node_longitude" : "356.4140690855424",
      "orbital_period" : "966.4318101501757",
      "perihelion_distance" : ".6274264303848848",
      "perihelion_argument" : "268.788332979152",
      "aphelion_distance" : "3.198575533739255",
      "perihelion_time" : "2454225.426195349354",
      "mean_anomaly" : "339.9122606252471",
      "mean_motion" : ".3725042948907683",
      "equinox" : "J2000",
      "orbit_class" : {
        "orbit_class_type" : "APO",
        "orbit_class_range" : "a (semi-major axis) > 1.0 AU; q (perihelion) < 1.017 AU",
        "orbit_class_description" : "Near-Earth asteroid orbits which cross the Earth’s orbit similar to that of 1862 Apollo"
      }
    },
    "is_sentry_object" : true,
    "sentry_data" : "https://api.nasa.gov/neo/rest/v1/neo/sentry/3370499?api_key=jqAGvNAwUIBu4fl9FSOjdm3V4F7hIglRzI6pdX9d"
  }, {
    "links" : {
      "self" : "https://api.nasa.gov/neo/rest/v1/neo/3370502?api_key=jqAGvNAwUIBu4fl9FSOjdm3V4F7hIglRzI6pdX9d"
    },
    "neo_reference_id" : "3370502",
    "name" : "(2007 EL26)",
    "designation" : "2007 EL26",
    "nasa_jpl_url" : "http://ssd.jpl.nasa.gov/sbdb.cgi?sstr=3370502",
    "absolute_magnitude_h" : 23.2,
    "estimated_diameter" : {
      "kilometers" : {
        "estimated_diameter_min" : 0.0608912622,
        "estimated_diameter_max" : 0.1361570015
      },
      "meters" : {
        "estimated_diameter_min" : 60.8912622106,
        "estimated_diameter_max" : 136.1570015386
      },
      "miles" : {
        "estimated_diameter_min" : 0.0378360645,
        "estimated_diameter_max" : 0.0846040122
      },
      "feet" : {
        "estimated_diameter_min" : 199.7744887109,
        "estimated_diameter_max" : 446.7093369279
      }
    },
    "is_potentially_hazardous_asteroid" : false,
    "close_approach_data" : [ {
      "close_approach_date" : "2007-03-06",
      "epoch_date_close_approach" : 1173168000000,
      "relative_velocity" : {
        "kilometers_per_second" : "7.1899367706",
        "kilometers_per_hour" : "25883.7723742853",
        "miles_per_hour" : "16083.169562233"
      },
      "miss_distance" : {
        "astronomical" : "0.2031485178",
        "lunar" : "79.024772644",
        "kilometers" : "30390586",
        "miles" : "18883834"
      },
      "orbiting_body" : "Earth"
    } ],
    "orbital_data" : {
      "orbit_id" : "7",
      "orbit_determination_date" : "2017-04-06 09:06:46",
      "first_observation_date" : "2007-03-10",
      "last_observation_date" : "2007-03-13",
      "data_arc_in_days" : 3,
      "observations_used" : 21,
      "orbit_uncertainty" : "9",
      "minimum_orbit_intersection" : ".163369",
      "jupiter_tisserand_invariant" : "5.043",
      "epoch_osculation" : "2454171.5",
      "eccentricity" : ".115938866186908",
      "semi_major_axis" : "1.27255627936253",
      "inclination" : "13.77296369524416",
      "ascending_node_longitude" : "344.3626074821017",
      "orbital_period" : "524.3411283626715",
      "perihelion_distance" : "1.125017547174208",
      "perihelion_argument" : "229.3421193487583",
      "aphelion_distance" : "1.420095011550852",
      "perihelion_time" : "2454228.679706351802",
      "mean_anomaly" : "320.7417896991462",
      "mean_motion" : ".6865759341140192",
      "equinox" : "J2000",
      "orbit_class" : {
        "orbit_class_type" : "AMO",
        "orbit_class_range" : "1.017 AU < q (perihelion) < 1.3 AU",
        "orbit_class_description" : "Near-Earth asteroid orbits similar to that of 1221 Amor"
      }
    },
    "is_sentry_object" : false
  }, {
    "links" : {
      "self" : "https://api.nasa.gov/neo/rest/v1/neo/3370503?api_key=jqAGvNAwUIBu4fl9FSOjdm3V4F7hIglRzI6pdX9d"
    },
    "neo_reference_id" : "3370503",
    "name" : "(2007 EM26)",
    "designation" : "2007 EM26",
    "nasa_jpl_url" : "http://ssd.jpl.nasa.gov/sbdb.cgi?sstr=3370503",
    "absolute_magnitude_h" : 22.7,
    "estimated_diameter" : {
      "kilometers" : {
        "estimated_diameter_min" : 0.0766575574,
        "estimated_diameter_max" : 0.1714115092
      },
      "meters" : {
        "estimated_diameter_min" : 76.6575573531,
        "estimated_diameter_max" : 171.4115092306
      },
      "miles" : {
        "estimated_diameter_min" : 0.0476327831,
        "estimated_diameter_max" : 0.1065101409
      },
      "feet" : {
        "estimated_diameter_min" : 251.5011804664,
        "estimated_diameter_max" : 562.3737359442
      }
    },
    "is_potentially_hazardous_asteroid" : false,
    "close_approach_data" : [ {
      "close_approach_date" : "2007-03-09",
      "epoch_date_close_approach" : 1173427200000,
      "relative_velocity" : {
        "kilometers_per_second" : "14.1127394801",
        "kilometers_per_hour" : "50805.8621282722",
        "miles_per_hour" : "31568.7869429811"
      },
      "miss_distance" : {
        "astronomical" : "0.1655892388",
        "lunar" : "64.4142150879",
        "kilometers" : "24771798",
        "miles" : "15392482"
      },
      "orbiting_body" : "Earth"
    } ],
    "orbital_data" : {
      "orbit_id" : "9",
      "orbit_determination_date" : "2017-04-06 09:06:46",
      "first_observation_date" : "2007-03-12",
      "last_observation_date" : "2007-03-16",
      "data_arc_in_days" : 4,
      "observations_used" : 40,
      "orbit_uncertainty" : "9",
      "minimum_orbit_intersection" : ".161132",
      "jupiter_tisserand_invariant" : "4.473",
      "epoch_osculation" : "2454173.5",
      "eccentricity" : ".2189119986115907",
      "semi_major_axis" : "1.466678959809163",
      "inclination" : "26.70987254927969",
      "ascending_node_longitude" : "169.226835329765",
      "orbital_period" : "648.7853276207286",
      "perihelion_distance" : "1.14560533739577",
      "perihelion_argument" : "342.7965975604305",
      "aphelion_distance" : "1.787752582222555",
      "perihelion_time" : "2454153.141552395746",
      "mean_anomaly" : "11.29655808402606",
      "mean_motion" : ".5548830786914023",
      "equinox" : "J2000",
      "orbit_class" : {
        "orbit_class_type" : "AMO",
        "orbit_class_range" : "1.017 AU < q (perihelion) < 1.3 AU",
        "orbit_class_description" : "Near-Earth asteroid orbits similar to that of 1221 Amor"
      }
    },
    "is_sentry_object" : false
  } ]
}